PROBA-1                 
1 26958U 01049B   26179.95154687  .00003112  00000+0  20198-3 0  9993
2 26958  97.9599 188.8944 0056619  83.3726 277.3941 15.07548486345393
CUTE-1 (CO-55)          
1 27844U 03031E   26179.48757997  .00000272  00000+0  13667-3 0  9999
2 27844  98.6736 187.9043 0010221 146.4668 213.7159 14.24342303193286
CUBESAT XI-IV (CO-57)   
1 27848U 03031J   26179.55199356  .00000229  00000+0  11941-3 0  9995
2 27848  98.6768 187.6716 0009707 163.9321 196.2167 14.23626546192990
APRIZESAT 4             
1 35684U 09041D   26179.65294848  .00000649  00000+0  84035-4 0  9993
2 35684  98.1411 255.2019 0041922 284.8620  74.7952 14.83893333913062
APRIZESAT 3             
1 35686U 09041F   26179.93566750  .00000773  00000+0  71694-4 0  9995
2 35686  98.2076 333.7233 0062304  29.3151 331.1541 14.96273954918132
PROBA-2                 
1 36037U 09059B   26179.93230659  .00000184  00000+0  53430-4 0  9995
2 36037  98.2451   3.1223 0012075 241.8359 118.1618 14.54867258883238
APRIZESAT 5             
1 37792U 11044E   26179.76239862  .00000993  00000+0  13267-3 0  9998
2 37792  98.2452 113.1310 0051414 326.8650  32.9344 14.81099328800508
APRIZESAT 6             
1 37793U 11044F   26179.73062593  .00000770  00000+0  11560-3 0  9998
2 37793  98.2355  90.4656 0044198  50.2070   4.2822 14.76932956798850
PROBA-V                 
1 39159U 13021A   26179.92698396  .00000090  00000+0  57459-4 0  9993
2 39159  98.3591 157.9544 0005419  96.5870 263.5927 14.23599736682787
APRIZESAT 7             
1 39416U 13066A   26179.82674009  .00001168  00000+0  12077-3 0  9995
2 39416  97.7712 132.8795 0036001 170.3336 189.8583 14.91587023682969
APRIZESAT 8             
1 39425U 13066K   26179.84484841  .00000818  00000+0  94470-4 0  9999
2 39425  97.8224 127.1505 0044423 246.8743 112.7789 14.87672286681404
BUGSAT-1 (TITA)         
1 40014U 14033E   26179.98586622  .00004938  00000+0  26047-3 0  9996
2 40014  98.0438 273.2251 0028823 138.7390 221.6026 15.15714373657621
SAUDISAT 4              
1 40016U 14033G   26179.95396082  .00000574  00000+0  82292-4 0  9991
2 40016  97.7596 325.6823 0045582  36.6795 323.7522 14.79558838647813
APRIZESAT 9             
1 40018U 14033J   26179.94981245  .00000753  00000+0  11770-3 0  9994
2 40018  97.9074 312.8617 0066619 161.3649 199.0022 14.74231139645291
APRIZESAT 10            
1 40019U 14033K   26179.89538315  .00000511  00000+0  88104-4 0  9993
2 40019  97.9663 306.5945 0077644 235.8179 123.5651 14.70893517643978
TECHDEMOSAT-1 (TDS-1)   
1 40076U 14037H   26179.92762416  .00008046  00000+0  45394-3 0  9999
2 40076  98.3810 173.3054 0005270 215.1574 144.9307 15.13462452650002
TECHNOSAT               
1 42829U 17042E   26179.95103041  .00002417  00000+0  17377-3 0  9998
2 42829  97.4291 337.1625 0019048  57.4544 302.8520 15.05027776488478
FLYING LAPTOP           
1 42831U 17042G   26179.98365351  .00003021  00000+0  23887-3 0  9993
2 42831  97.4732 335.0661 0019989  83.9472 276.4030 15.01219213488226
HAWK-A                  
1 43765U 18099H   26179.70187084  .00006002  00000+0  24138-3 0  9990
2 43765  97.3911 231.7879 0033289 243.2545 116.5285 15.24772887414855
HAWK-B                  
1 43794U 18099AN  26179.67145255  .00005342  00000+0  22777-3 0  9995
2 43794  97.3959 231.1488 0030281 262.3237  97.4561 15.22944700414787
HAWK-C                  
1 43799U 18099AT  26179.71775590  .00006820  00000+0  24501-3 0  9995
2 43799  97.3886 232.7727 0038911 243.1544 116.5715 15.28259417415673
SALSAT                  
1 46495U 20068K   26179.98408402  .00006804  00000+0  23731-3 0  9990
2 46495  97.8845 183.7681 0007870 257.4321 102.6038 15.29961615317164
HAWK-2C                 
1 47502U 21006CT  26179.69278544  .00005961  00000+0  17886-3 0  9990
2 47502  97.2275 223.7734 0007887 148.3628 211.8091 15.34799216301263
HAWK-2A                 
1 47505U 21006CW  26179.69516708  .00005920  00000+0  17758-3 0  9993
2 47505  97.2316 224.4602 0007347 151.0838 209.0814 15.34813530301267
HAWK-2B                 
1 47508U 21006CZ  26179.68998319  .00006775  00000+0  20219-3 0  9992
2 47508  97.2186 222.7683 0007937 149.9067 210.2635 15.34919840301266
HAWK-3B                 
1 48931U 21059BE  26179.79661278  .00041022  00000+0  33436-3 0  9993
2 48931  97.6647  17.6106 0003205 269.3721  90.7173 15.70531785279677
HAWK-3C                 
1 48948U 21059BX  26179.86000265  .00041698  00000+0  33978-3 0  9992
2 48948  97.6766  23.3859 0003426 270.3883  89.6986 15.70533969279688
HAWK-3A                 
1 48957U 21059CG  26179.54129552  .00042237  00000+0  34461-3 0  9996
2 48957  97.6708  20.2319 0003381 274.6855  85.4020 15.70501384279631
HAWK-5C                 
1 52754U 22057Y   26179.91073563  .00017773  00000+0  29897-3 0  9990
2 52754  97.6605 340.3372 0004177  44.4656 315.6930 15.51796533228169
HAWK-5B                 
1 52756U 22057AA  26179.91056654  .00018093  00000+0  30424-3 0  9998
2 52756  97.6614 338.6872 0004786  36.3692 323.7884 15.51800244228165
